STARLINK-31822          
1 59752U 24090Y   26068.63800315 -.00000153  00000+0  39532-5 0  9997
2 59752  43.0026 183.6643 0001230 250.1651 109.9068 15.27570605103423
FLOCK 4G-4              
1 62659U 25009BC  26068.75333732  .00011866  00000+0  45294-3 0  9997
2 62659  97.3994 150.7963 0001598 343.4316  16.6870 15.26803327121323
